ONEWEB-0182             
1 48228U 21031U   24320.68698511  .00000293  00000+0  75696-3 0  9995
2 48228  87.9031  44.7517 0001890 105.4514 254.6824 13.14506159172433
ONEWEB-0186             
1 48229U 21031V   24320.92645543  .00000224  00000+0  57104-3 0  9998
2 48229  87.9033  44.6669 0001724 100.3979 259.7345 13.14500303172415
ONEWEB-0181             
1 48230U 21031W   24320.67589536  .00000106  00000+0  25279-3 0  9998
2 48230  87.9031  44.7873 0001627 100.2200 259.9113 13.14503306172232
ONEWEB-0188             
1 48231U 21031X   24320.63782999 -.00000186  00000+0 -53627-3 0  9991
2 48231  87.9034  44.7886 0001697 103.5285 256.6033 13.14504091172132
ONEWEB-0220             
1 48232U 21031Y   24320.67746296 -.00000240  00000+0 -68056-3 0  9999
2 48232  87.9021  44.7366 0001518 111.7467 248.3824 13.14504676172402
ONEWEB-0165             
1 48233U 21031Z   24320.93436721  .00000153  00000+0  37821-3 0  9995
2 48233  87.9033  44.7123 0001579 102.7267 257.4039 13.14505974172391
